{
    "links": {
        "self": "http://www.neowsapp.com/rest/v1/neo/3831473?api_key=iIulBulltgU6a56xZRHN4H3l9WmuAYTsLGpBGhQ2"
    },
    "id": "3831473",
    "neo_reference_id": "3831473",
    "name": "(2018 TX2)",
    "designation": "2018 TX2",
    "nasa_jpl_url": "http://ssd.jpl.nasa.gov/sbdb.cgi?sstr=3831473",
    "absolute_magnitude_h": 25.5,
    "estimated_diameter": {
        "kilometers": {
            "estimated_diameter_min": 0.0211132445,
            "estimated_diameter_max": 0.0472106499
        },
        "meters": {
            "estimated_diameter_min": 21.113244479,
            "estimated_diameter_max": 47.2106498806
        },
        "miles": {
            "estimated_diameter_min": 0.0131191578,
            "estimated_diameter_max": 0.0293353287
        },
        "feet": {
            "estimated_diameter_min": 69.2691770164,
            "estimated_diameter_max": 154.8905885541
        }
    },
    "is_potentially_hazardous_asteroid": false,
    "close_approach_data": [
        {
            "close_approach_date": "2018-10-02",
            "close_approach_date_full": "2018-Oct-02 13:44",
            "epoch_date_close_approach": 1538487840000,
            "relative_velocity": {
                "kilometers_per_second": "22.9002150091",
                "kilometers_per_hour": "82440.7740328957",
                "miles_per_hour": "51225.4909539401"
            },
            "miss_distance": {
                "astronomical": "0.0355166184",
                "lunar": "13.8159645576",
                "kilometers": "5313210.462242808",
                "miles": "3301475.8897664304"
            },
            "orbiting_body": "Earth"
        }
    ],
    "orbital_data": {
        "orbit_id": "1",
        "orbit_determination_date": "2018-10-09 03:42:07",
        "first_observation_date": "2018-10-05",
        "last_observation_date": "2018-10-08",
        "data_arc_in_days": 3,
        "observations_used": 26,
        "orbit_uncertainty": "8",
        "minimum_orbit_intersection": ".0342176",
        "jupiter_tisserand_invariant": "3.784",
        "epoch_osculation": "2458397.5",
        "eccentricity": ".591550172597042",
        "semi_major_axis": "1.747387298007178",
        "inclination": "30.35298793465679",
        "ascending_node_longitude": "191.9453525666818",
        "orbital_period": "843.6886147925776",
        "perihelion_distance": ".713720040277153",
        "perihelion_argument": "97.83628854381462",
        "aphelion_distance": "2.781054555737203",
        "perihelion_time": "2458343.868053181321",
        "mean_anomaly": "22.88462889767835",
        "mean_motion": ".4266977101362291",
        "equinox": "J2000",
        "orbit_class": {
            "orbit_class_type": "APO",
            "orbit_class_description": "Near-Earth asteroid orbits which cross the Earth’s orbit similar to that of 1862 Apollo",
            "orbit_class_range": "a (semi-major axis) > 1.0 AU; q (perihelion) < 1.017 AU"
        }
    },
    "is_sentry_object": false
}